[
    {
        "Altitude(m)": 702934.7830766954,
        "Argument of Periapsis(deg)": 0.009112096949301655,
        "Eccentricity": 0.0,
        "Inclination(deg)": 45.0,
        "Latitude(deg)": 5.002853361104931,
        "Longitude(deg)": 139.39216513665994,
        "Mean Anomaly(deg)": 172.86297331798465,
        "RAAN(deg)": 64.99139844683344,
        "Satellite Name": "Constellation 1 296",
        "Satellite Number": 296,
        "Semi-Major Axis(m)": 7083131.272910544,
        "Time(s)": 152
    },
    {
        "Altitude(m)": 702937.9886324322,
        "Argument of Periapsis(deg)": 0.009172044955547059,
        "Eccentricity": 0.0,
        "Inclination(deg)": 45.0,
        "Latitude(deg)": 4.959796515697805,
        "Longitude(deg)": 139.4312441972544,
        "Mean Anomaly(deg)": 172.92367445823453,
        "RAAN(deg)": 64.99134185766786,
        "Satellite Name": "Constellation 1 296",
        "Satellite Number": 296,
        "Semi-Major Axis(m)": 7083131.272910544,
        "Time(s)": 153
    },
    {
        "Altitude(m)": 702941.2149466,
        "Argument of Periapsis(deg)": 0.009231992961792466,
        "Eccentricity": 0.0,
        "Inclination(deg)": 45.0,
        "Latitude(deg)": 4.916736848798354,
        "Longitude(deg)": 139.4703176104028,
        "Mean Anomaly(deg)": 172.9843755984845,
        "RAAN(deg)": 64.9912852685023,
        "Satellite Name": "Constellation 1 296",
        "Satellite Number": 296,
        "Semi-Major Axis(m)": 7083131.272910544,
        "Time(s)": 154
    },
    {
        "Altitude(m)": 702944.4620234602,
        "Argument of Periapsis(deg)": 0.009291940968037872,
        "Eccentricity": 0.0,
        "Inclination(deg)": 45.0,
        "Latitude(deg)": 4.8736743859757095,
        "Longitude(deg)": 139.50938542514956,
        "Mean Anomaly(deg)": 173.0450767387344,
        "RAAN(deg)": 64.99122867933674,
        "Satellite Name": "Constellation 1 296",
        "Satellite Number": 296,
        "Semi-Major Axis(m)": 7083131.272910544,
        "Time(s)": 155
    },
    {
        "Altitude(m)": 702947.7298671721,
        "Argument of Periapsis(deg)": 0.009351888974283276,
        "Eccentricity": 0.0,
        "Inclination(deg)": 45.0,
        "Latitude(deg)": 4.830609152788272,
        "Longitude(deg)": 139.54844752242983,
        "Mean Anomaly(deg)": 173.10577787898424,
        "RAAN(deg)": 64.99117209017116,
        "Satellite Name": "Constellation 1 296",
        "Satellite Number": 296,
        "Semi-Major Axis(m)": 7083131.272910544,
        "Time(s)": 156
    },
    {
        "Altitude(m)": 702951.0184818123,
        "Argument of Periapsis(deg)": 0.00941183698052868,
        "Eccentricity": 0.0,
        "Inclination(deg)": 45.0,
        "Latitude(deg)": 4.787541174783243,
        "Longitude(deg)": 139.58750428745736,
        "Mean Anomaly(deg)": 173.16647901923417,
        "RAAN(deg)": 64.9911155010056,
        "Satellite Name": "Constellation 1 296",
        "Satellite Number": 296,
        "Semi-Major Axis(m)": 7083131.272910544,
        "Time(s)": 157
    },
    {
        "Altitude(m)": 702954.3278713607,
        "Argument of Periapsis(deg)": 0.009471784986774088,
        "Eccentricity": 0.0,
        "Inclination(deg)": 45.0,
        "Latitude(deg)": 4.74447047749785,
        "Longitude(deg)": 139.62655560114246,
        "Mean Anomaly(deg)": 173.22718015948408,
        "RAAN(deg)": 64.99105891184001,
        "Satellite Name": "Constellation 1 296",
        "Satellite Number": 296,
        "Semi-Major Axis(m)": 7083131.272910544,
        "Time(s)": 158
    },
    {
        "Altitude(m)": 702957.6580397071,
        "Argument of Periapsis(deg)": 0.009531732993019492,
        "Eccentricity": 0.0,
        "Inclination(deg)": 45.0,
        "Latitude(deg)": 4.701397086458694,
        "Longitude(deg)": 139.66560151248032,
        "Mean Anomaly(deg)": 173.28788129973395,
        "RAAN(deg)": 64.99100232267445,
        "Satellite Name": "Constellation 1 296",
        "Satellite Number": 296,
        "Semi-Major Axis(m)": 7083131.272910544,
        "Time(s)": 159
    },
    {
        "Altitude(m)": 702961.0089906539,
        "Argument of Periapsis(deg)": 0.009591680999264898,
        "Eccentricity": 0.0,
        "Inclination(deg)": 45.0,
        "Latitude(deg)": 4.658321027181911,
        "Longitude(deg)": 139.70464207045387,
        "Mean Anomaly(deg)": 173.3485824399838,
        "RAAN(deg)": 64.99094573350888,
        "Satellite Name": "Constellation 1 296",
        "Satellite Number": 296,
        "Semi-Major Axis(m)": 7083131.272910544,
        "Time(s)": 160
    },
    {
        "Altitude(m)": 702964.3807279039,
        "Argument of Periapsis(deg)": 0.009651629005510304,
        "Eccentricity": 0.0,
        "Inclination(deg)": 45.0,
        "Latitude(deg)": 4.615242325173313,
        "Longitude(deg)": 139.74367732403437,
        "Mean Anomaly(deg)": 173.40928358023382,
        "RAAN(deg)": 64.99088914434331,
        "Satellite Name": "Constellation 1 296",
        "Satellite Number": 296,
        "Semi-Major Axis(m)": 7083131.272910544,
        "Time(s)": 161
    },
    {
        "Altitude(m)": 702967.7732550699,
        "Argument of Periapsis(deg)": 0.00971157701175571,
        "Eccentricity": 0.0,
        "Inclination(deg)": 45.0,
        "Latitude(deg)": 4.572161005928825,
        "Longitude(deg)": 139.78270732218067,
        "Mean Anomaly(deg)": 173.46998472048367,
        "RAAN(deg)": 64.99083255517775,
        "Satellite Name": "Constellation 1 296",
        "Satellite Number": 296,
        "Semi-Major Axis(m)": 7083131.272910544,
        "Time(s)": 162
    },
    {
        "Altitude(m)": 702971.1865756738,
        "Argument of Periapsis(deg)": 0.009771525018001118,
        "Eccentricity": 0.0,
        "Inclination(deg)": 45.0,
        "Latitude(deg)": 4.529077094934048,
        "Longitude(deg)": 139.82173194574332,
        "Mean Anomaly(deg)": 173.5306858607336,
        "RAAN(deg)": 64.99077596601218,
        "Satellite Name": "Constellation 1 296",
        "Satellite Number": 296,
        "Semi-Major Axis(m)": 7083131.272910544,
        "Time(s)": 163
    },
    {
        "Altitude(m)": 702974.6206931496,
        "Argument of Periapsis(deg)": 0.00983147302424652,
        "Eccentricity": 0.0,
        "Inclination(deg)": 45.0,
        "Latitude(deg)": 4.485990617664227,
        "Longitude(deg)": 139.86075157985195,
        "Mean Anomaly(deg)": 173.59138700098347,
        "RAAN(deg)": 64.9907193768466,
        "Satellite Name": "Constellation 1 296",
        "Satellite Number": 296,
        "Semi-Major Axis(m)": 7083131.272910544,
        "Time(s)": 164
    },
    {
        "Altitude(m)": 702978.075610828,
        "Argument of Periapsis(deg)": 0.009891421030491928,
        "Eccentricity": 0.0,
        "Inclination(deg)": 45.0,
        "Latitude(deg)": 4.442901599585165,
        "Longitude(deg)": 139.89976610533367,
        "Mean Anomaly(deg)": 173.65208814123335,
        "RAAN(deg)": 64.99066278768103,
        "Satellite Name": "Constellation 1 296",
        "Satellite Number": 296,
        "Semi-Major Axis(m)": 7083131.272910544,
        "Time(s)": 165
    },
    {
        "Altitude(m)": 702981.5513319598,
        "Argument of Periapsis(deg)": 0.009951369036737332,
        "Eccentricity": 0.0,
        "Inclination(deg)": 45.0,
        "Latitude(deg)": 4.399810066152747,
        "Longitude(deg)": 139.93877557110102,
        "Mean Anomaly(deg)": 173.71278928148325,
        "RAAN(deg)": 64.99060619851547,
        "Satellite Name": "Constellation 1 296",
        "Satellite Number": 296,
        "Semi-Major Axis(m)": 7083131.272910544,
        "Time(s)": 166
    },
    {
        "Altitude(m)": 702985.047859698,
        "Argument of Periapsis(deg)": 0.010011317042982738,
        "Eccentricity": 0.0,
        "Inclination(deg)": 45.0,
        "Latitude(deg)": 4.356716042813066,
        "Longitude(deg)": 139.9777800260553,
        "Mean Anomaly(deg)": 173.77349042173313,
        "RAAN(deg)": 64.9905496093499,
        "Satellite Name": "Constellation 1 296",
        "Satellite Number": 296,
        "Semi-Major Axis(m)": 7083131.272910544,
        "Time(s)": 167
    },
    {
        "Altitude(m)": 702988.5651970999,
        "Argument of Periapsis(deg)": 0.010071265049228144,
        "Eccentricity": 0.0,
        "Inclination(deg)": 45.0,
        "Latitude(deg)": 4.313619555002559,
        "Longitude(deg)": 140.01677951908644,
        "Mean Anomaly(deg)": 173.8341915619831,
        "RAAN(deg)": 64.99049302018433,
        "Satellite Name": "Constellation 1 296",
        "Satellite Number": 296,
        "Semi-Major Axis(m)": 7083131.272910544,
        "Time(s)": 168
    },
    {
        "Altitude(m)": 702992.1033471365,
        "Argument of Periapsis(deg)": 0.01013121305547355,
        "Eccentricity": 0.0,
        "Inclination(deg)": 45.0,
        "Latitude(deg)": 4.270520628148246,
        "Longitude(deg)": 140.05577409907306,
        "Mean Anomaly(deg)": 173.89489270223297,
        "RAAN(deg)": 64.99043643101876,
        "Satellite Name": "Constellation 1 296",
        "Satellite Number": 296,
        "Semi-Major Axis(m)": 7083131.272910544,
        "Time(s)": 169
    },
    {
        "Altitude(m)": 702995.6623126833,
        "Argument of Periapsis(deg)": 0.010191161061718957,
        "Eccentricity": 0.0,
        "Inclination(deg)": 45.0,
        "Latitude(deg)": 4.227419287667504,
        "Longitude(deg)": 140.09476381488304,
        "Mean Anomaly(deg)": 173.95559384248284,
        "RAAN(deg)": 64.99037984185318,
        "Satellite Name": "Constellation 1 296",
        "Satellite Number": 296,
        "Semi-Major Axis(m)": 7083131.272910544,
        "Time(s)": 170
    }
]